[{"OBJECT_NAME":"STARLINK-34818","OBJECT_ID":"2025-179D","EPOCH":"2026-03-09T17:06:09.215424","MEAN_MOTION":15.05647088,"ECCENTRICITY":0.00012755,"INCLINATION":97.6024,"RA_OF_ASC_NODE":113.0164,"ARG_OF_PERICENTER":89.464,"MEAN_ANOMALY":270.6733,"EPHEMERIS_TYPE":0,"CLASSIFICATION_TYPE":"U","NORAD_CAT_ID":65238,"ELEMENT_SET_NO":999,"REV_AT_EPOCH":3155,"BSTAR":6.6697902e-5,"MEAN_MOTION_DOT":9.02e-6,"MEAN_MOTION_DDOT":0},{"OBJECT_NAME":"FENGYUN 1C DEB","OBJECT_ID":"1999-025BTY","EPOCH":"2026-03-09T14:49:03.533664","MEAN_MOTION":15.05418076,"ECCENTRICITY":0.0035944,"INCLINATION":98.8793,"RA_OF_ASC_NODE":298.6402,"ARG_OF_PERICENTER":319.4464,"MEAN_ANOMALY":105.3063,"EPHEMERIS_TYPE":0,"CLASSIFICATION_TYPE":"U","NORAD_CAT_ID":31436,"ELEMENT_SET_NO":999,"REV_AT_EPOCH":98178,"BSTAR":0.0045436,"MEAN_MOTION_DOT":0.00066638,"MEAN_MOTION_DDOT":0}]
